NORAD_CAT_ID,OBJECT_NAME,OBJECT_TYPE,EPOCH,MEAN_MOTION,ECCENTRICITY,INCLINATION,RA_OF_ASC_NODE,ARG_OF_PERICENTER,MEAN_ANOMALY,BSTAR,MEAN_MOTION_DOT,MEAN_MOTION_DDOT,TLE_LINE0,TLE_LINE1,TLE_LINE2,SEMIMAJOR_AXIS,PERIOD,APOGEE,PERIGEE,DECAYED
51966.0,STARLINK-3699,PAYLOAD,2023-09-07 18:33:03,15.06398773,0.0001416,53.0546,173.5575,85.5334,274.5817,4.4493e-05,3.81e-06,0.0,0 STARLINK-3699,1 51966U 22025L   23250.77296292  .00000381  00000-0  44493-4 0  9994,2 51966  53.0546 173.5575 0001416  85.5334 274.5817 15.06398773 83177,6925.352,95.592,548.198,546.237,0.0
51966.0,STARLINK-3699,PAYLOAD,2023-09-08 02:30:45,15.0640731,0.0001293,53.0545,172.0675,92.4455,267.6682,6.1168e-05,6.3e-06,0.0,0 STARLINK-3699,1 51966U 22025L   23251.10469206  .00000630  00000-0  61168-4 0  9994,2 51966  53.0545 172.0675 0001293  92.4455 267.6682 15.06407310 84313,6925.326,95.592,548.087,546.296,0.0
51966.0,STARLINK-3699,PAYLOAD,2023-09-08 18:26:09,15.06400558,0.0001987,53.0544,169.0906,62.6259,297.4932,2.8702e-05,1.46e-06,0.0,0 STARLINK-3699,1 51966U 22025L   23251.76816796  .00000146  00000-0  28702-4 0  9995,2 51966  53.0544 169.0906 0001987  62.6259 297.4932 15.06400558 84413,6925.347,95.592,548.588,545.836,0.0
51966.0,STARLINK-3699,PAYLOAD,2023-09-09 11:57:05,15.0639877,0.0001334,53.0544,165.8123,92.7786,267.3355,1.1556e-05,-1.09e-06,0.0,0 STARLINK-3699,1 51966U 22025L   23252.49798269 -.00000109  00000-0  11556-4 0  9999,2 51966  53.0544 165.8123 0001334  92.7786 267.3355 15.06398770 83431,6925.352,95.592,548.141,546.293,0.0
51966.0,STARLINK-3699,PAYLOAD,2023-09-09 18:19:15,15.06395902,0.0001361,53.0542,164.6211,94.293,265.8214,5.2338e-06,-2.03e-06,0.0,0 STARLINK-3699,1 51966U 22025L   23252.76337185 -.00000203  00000-0  52338-5 0  9994,2 51966  53.0542 164.6211 0001361  94.2930 265.8214 15.06395902 84568,6925.361,95.592,548.169,546.284,0.0
51966.0,STARLINK-3699,PAYLOAD,2023-09-10 03:52:28,15.0640371,0.0001353,53.0543,162.8347,86.1301,273.9842,5.9699e-05,6.08e-06,0.0,0 STARLINK-3699,1 51966U 22025L   23253.16144647  .00000608  00000-0  59699-4 0  9992,2 51966  53.0543 162.8347 0001353  86.1301 273.9842 15.06403710 84623,6925.337,95.592,548.139,546.265,0.0
51966.0,STARLINK-3699,PAYLOAD,2023-09-11 00:34:30,15.06398756,0.0001406,53.0549,158.9605,87.7763,272.3387,8.0947e-07,-2.69e-06,0.0,0 STARLINK-3699,1 51966U 22025L   23254.02396134 -.00000269  00000-0  80947-6 0  9994,2 51966  53.0549 158.9605 0001406  87.7763 272.3387 15.06398756 84754,6925.352,95.592,548.191,546.244,0.0
51966.0,STARLINK-3699,PAYLOAD,2023-09-12 00:27:35,15.06398677,0.000127,53.0541,154.4948,82.4342,277.6791,0.00016922,2.24e-05,0.0,0 STARLINK-3699,1 51966U 22025L   23255.01916131  .00002240  00000-0  16922-3 0  9998,2 51966  53.0541 154.4948 0001270  82.4342 277.6791 15.06398677 83816,6925.353,95.592,548.097,546.338,0.0
51966.0,STARLINK-3699,PAYLOAD,2023-09-12 16:22:59,15.0639351,0.0001264,53.0532,151.5179,99.701,260.4122,7.7775e-05,8.77e-06,0.0,0 STARLINK-3699,1 51966U 22025L   23255.68263566  .00000877  00000-0  77775-4 0  9996,2 51966  53.0532 151.5179 0001264  99.7010 260.4122 15.06393510 85008,6925.368,95.593,548.109,546.358,0.0
51966.0,STARLINK-3699,PAYLOAD,2023-09-12 21:09:36,15.06399507,0.0001137,53.0541,150.6242,91.9559,268.156,3.5288e-05,2.44e-06,0.0,0 STARLINK-3699,1 51966U 22025L   23255.88167486  .00000244  00000-0  35288-4 0  9993,2 51966  53.0541 150.6242 0001137  91.9559 268.1560 15.06399507 83944,6925.35,95.592,548.002,546.428,0.0
51966.0,STARLINK-3699,PAYLOAD,2023-09-13 00:20:41,15.06407137,0.0001262,53.0536,150.0293,109.2438,250.8687,3.1042e-05,1.81e-06,0.0,0 STARLINK-3699,1 51966U 22025L   23256.01436370  .00000181  00000-0  31042-4 0  9994,2 51966  53.0536 150.0293 0001262 109.2438 250.8687 15.06407137 85057,6925.327,95.592,548.066,546.318,0.0
51966.0,STARLINK-3699,PAYLOAD,2023-09-13 21:02:42,15.0639793,0.0001541,53.0548,146.1545,66.4396,293.6755,-1.277e-05,-4.72e-06,0.0,0 STARLINK-3699,1 51966U 22025L   23256.87688148 -.00000472  00000-0 -12770-4 0  9992,2 51966  53.0548 146.1545 0001541  66.4396 293.6755 15.06397930 84096,6925.355,95.592,548.287,546.153,0.0
51966.0,STARLINK-3699,PAYLOAD,2023-09-14 01:49:19,15.06391978,0.0001028,53.0542,145.2614,95.8612,264.2494,-6.7477e-05,-1.286e-05,0.0,0 STARLINK-3699,1 51966U 22025L   23257.07592520 -.00001286  00000-0 -67477-4 0  9991,2 51966  53.0542 145.2614 0001028  95.8612 264.2494 15.06391978 85219,6925.373,95.593,547.95,546.526,0.0
51966.0,STARLINK-3699,PAYLOAD,2023-09-14 11:22:34,15.06387793,0.0001273,53.0543,143.4737,94.1234,265.99,3.9718e-06,-2.22e-06,0.0,0 STARLINK-3699,1 51966U 22025L   23257.47400936 -.00000222  00000-0  39718-5 0  9990,2 51966  53.0543 143.4737 0001273  94.1234 265.9900 15.06387793 84185,6925.386,95.593,548.133,546.369,0.0
51966.0,STARLINK-3699,PAYLOAD,2023-09-14 20:55:47,15.06399974,0.0001028,53.0547,141.6864,100.6348,259.4757,-2.2199e-05,-6.12e-06,0.0,0 STARLINK-3699,1 51966U 22025L   23257.87208333 -.00000612  00000-0 -22199-4 0  9999,2 51966  53.0547 141.6864 0001028 100.6348 259.4757 15.06399974 85337,6925.349,95.592,547.926,546.502,0.0
51966.0,STARLINK-3699,PAYLOAD,2023-09-15 01:42:24,15.06406997,0.0001125,53.0542,140.7941,86.3846,273.7272,9.2446e-05,1.096e-05,0.0,0 STARLINK-3699,1 51966U 22025L   23258.07111664  .00001096  00000-0  92446-4 0  9999,2 51966  53.0542 140.7941 0001125  86.3846 273.7272 15.06406997 85367,6925.327,95.592,547.971,546.413,0.0
51966.0,STARLINK-3699,PAYLOAD,2023-09-15 11:15:39,15.06395929,0.0001227,53.0541,139.0075,92.3446,267.7684,8.1477e-05,9.32e-06,0.0,0 STARLINK-3699,1 51966U 22025L   23258.46920465  .00000932  00000-0  81477-4 0  9999,2 51966  53.0541 139.0075 0001227  92.3446 267.7684 15.06395929 84339,6925.361,95.592,548.076,546.376,0.0
51966.0,STARLINK-3699,PAYLOAD,2023-09-15 22:24:25,15.06396793,0.0001173,53.0543,136.9227,75.9931,284.1189,0.00017082,2.264e-05,0.0,0 STARLINK-3699,1 51966U 22025L   23258.93363009  .00002264  00000-0  17082-3 0  9996,2 51966  53.0543 136.9227 0001173  75.9931 284.1189 15.06396793 84403,6925.358,95.592,548.036,546.411,0.0
51966.0,STARLINK-3699,PAYLOAD,2023-09-17 01:28:35,15.06407119,0.0001185,53.0547,131.8572,85.2902,274.8223,3.2591e-05,2.04e-06,0.0,0 STARLINK-3699,1 51966U 22025L   23260.06152365  .00000204  00000-0  32591-4 0  9999,2 51966  53.0547 131.8572 0001185  85.2902 274.8223 15.06407119 85668,6925.327,95.592,548.012,546.371,0.0
51966.0,STARLINK-3699,PAYLOAD,2023-09-17 22:10:36,15.06401953,0.0001207,53.0542,127.9862,84.1687,275.9439,6.8584e-05,7.4e-06,0.0,0 STARLINK-3699,1 51966U 22025L   23260.92403444  .00000740  00000-0  68584-4 0  9997,2 51966  53.0542 127.9862 0001207  84.1687 275.9439 15.06401953 85799,6925.343,95.592,548.043,546.372,0.0
51966.0,STARLINK-3699,PAYLOAD,2023-09-18 20:28:09,15.06399321,0.0001158,53.0539,123.818,85.5378,274.5744,5.2832e-05,5.06e-06,0.0,0 STARLINK-3699,1 51966U 22025L   23261.85289169  .00000506  00000-0  52832-4 0  9995,2 51966  53.0539 123.8180 0001158  85.5378 274.5744 15.06399321 84844,6925.351,95.592,548.018,546.414,0.0
51966.0,STARLINK-3699,PAYLOAD,2023-09-19 09:12:28,15.06402841,0.000126,53.0542,121.4347,85.731,274.3823,8.6762e-05,1.011e-05,0.0,0 STARLINK-3699,1 51966U 22025L   23262.38366321  .00001011  00000-0  86762-4 0  9991,2 51966  53.0542 121.4347 0001260  85.7310 274.3823 15.06402841 86018,6925.34,95.592,548.077,546.332,0.0
51966.0,STARLINK-3699,PAYLOAD,2023-09-19 23:32:19,15.06413549,0.0001226,53.0541,118.7539,85.6377,274.4752,7.778e-05,8.78e-06,0.0,0 STARLINK-3699,1 51966U 22025L   23262.98077692  .00000878  00000-0  77780-4 0  9997,2 51966  53.0541 118.7539 0001226  85.6377 274.4752 15.06413549 86102,6925.307,95.591,548.021,546.323,0.0
51966.0,STARLINK-3699,PAYLOAD,2023-09-20 09:05:34,15.06391238,0.0001214,53.0556,116.9658,109.5976,250.5144,3.0164e-05,1.68e-06,0.0,0 STARLINK-3699,1 51966U 22025L   23263.37887349  .00000168  00000-0  30164-4 0  9996,2 51966  53.0556 116.9658 0001214 109.5976 250.5144 15.06391238 86164,6925.375,95.593,548.081,546.4,0.0
51966.0,STARLINK-3699,PAYLOAD,2023-09-20 18:38:49,15.06386926,0.0001325,53.0542,115.18,89.1746,270.9395,-8.2932e-05,-1.516e-05,0.0,0 STARLINK-3699,1 51966U 22025L   23263.77696427 -.00001516  00000-0 -82932-4 0  9995,2 51966  53.0542 115.1800 0001325  89.1746 270.9395 15.06386926 86229,6925.389,95.593,548.171,546.336,0.0
51966.0,STARLINK-3699,PAYLOAD,2023-09-20 21:49:54,15.06388353,0.0001345,53.0542,114.5842,90.5148,269.5995,-6.8212e-05,-1.297e-05,0.0,0 STARLINK-3699,1 51966U 22025L   23263.90965729 -.00001297  00000-0 -68212-4 0  9995,2 51966  53.0542 114.5842 0001345  90.5148 269.5995 15.06388353 85159,6925.384,95.593,548.181,546.318,0.0
51966.0,STARLINK-3699,PAYLOAD,2023-09-21 13:45:17,15.06395117,0.0001333,53.0545,111.6065,82.3146,277.7994,2.9687e-05,1.61e-06,0.0,0 STARLINK-3699,1 51966U 22025L   23264.57312158  .00000161  00000-0  29687-4 0  9991,2 51966  53.0545 111.6065 0001333  82.3146 277.7994 15.06395117 85258,6925.364,95.592,548.152,546.305,0.0
51966.0,STARLINK-3699,PAYLOAD,2023-09-21 18:31:54,15.06400672,0.0001367,53.0539,110.7117,84.298,275.8164,9.8355e-05,1.184e-05,0.0,0 STARLINK-3699,1 51966U 22025L   23264.77215761  .00001184  00000-0  98355-4 0  9999,2 51966  53.0539 110.7117 0001367  84.2980 275.8164 15.06400672 86378,6925.346,95.592,548.158,546.265,0.0
51966.0,STARLINK-3699,PAYLOAD,2023-09-21 23:18:31,15.06407383,0.0001371,53.054,109.8176,86.9895,273.125,9.972e-05,1.204e-05,0.0,0 STARLINK-3699,1 51966U 22025L   23264.97119470  .00001204  00000-0  99720-4 0  9991,2 51966  53.0540 109.8176 0001371  86.9895 273.1250 15.06407383 85319,6925.326,95.592,548.14,546.241,0.0
51966.0,STARLINK-3699,PAYLOAD,2023-09-22 18:25:00,15.06397467,0.0001453,53.0535,106.2425,85.9308,274.1847,0.00070594,0.00010248,0.0,0 STARLINK-3699,1 51966U 22025L   23265.76736848  .00010248  00000-0  70594-3 0  9998,2 51966  53.0535 106.2425 0001453  85.9308 274.1847 15.06397467 86528,6925.356,95.592,548.228,546.215,0.0
